[{"OBJECT_NAME":"GNOMES-4","OBJECT_ID":"2023-185A","EPOCH":"2026-03-09T23:48:26.932032","MEAN_MOTION":15.00198915,"ECCENTRICITY":0.000923,"INCLINATION":97.5118,"RA_OF_ASC_NODE":129.6992,"ARG_OF_PERICENTER":282.2655,"MEAN_ANOMALY":77.7535,"EPHEMERIS_TYPE":0,"CLASSIFICATION_TYPE":"U","NORAD_CAT_ID":58462,"ELEMENT_SET_NO":999,"REV_AT_EPOCH":12441,"BSTAR":0.00042532845,"MEAN_MOTION_DOT":5.265e-5,"MEAN_MOTION_DDOT":0},{"OBJECT_NAME":"CZ-6A DEB","OBJECT_ID":"2024-140QV","EPOCH":"2026-03-09T14:50:36.844800","MEAN_MOTION":14.79717429,"ECCENTRICITY":0.0126492,"INCLINATION":89.1682,"RA_OF_ASC_NODE":293.0345,"ARG_OF_PERICENTER":169.4874,"MEAN_ANOMALY":190.9042,"EPHEMERIS_TYPE":0,"CLASSIFICATION_TYPE":"U","NORAD_CAT_ID":61151,"ELEMENT_SET_NO":999,"REV_AT_EPOCH":8312,"BSTAR":0.0011388,"MEAN_MOTION_DOT":9.83e-5,"MEAN_MOTION_DDOT":0}]
